{
  "type": "FeatureCollection",
  "features": [
    {
      "type": "Feature",
      "properties": {
        "norad_id": 67025,
        "name": "STARLINK-36178",
        "group": "last-30-days",
        "lat": -48.74230883013081,
        "lon": 131.95409520115453,
        "alt_km": 343.061489952971,
        "timestamp": "2025-12-25T07:00:32.766682+00:00",
        "meta_object_name": "STARLINK-36178",
        "meta_object_id": "2025-293Y",
        "meta_epoch": "2025-12-24T22:00:03.000096",
        "meta_mean_motion": 15.78451625,
        "meta_eccentricity": 0.00036553,
        "meta_inclination": 69.9919,
        "meta_ra_of_asc_node": 288.4768,
        "meta_arg_of_pericenter": 263.1324,
        "meta_mean_anomaly": 358.6798,
        "meta_ephemeris_type": 0,
        "meta_classification_type": "U",
        "meta_norad_cat_id": 67025,
        "meta_element_set_no": 999,
        "meta_rev_at_epoch": 218,
        "meta_bstar": -0.01098879,
        "meta_mean_motion_dot": -0.01658671,
        "meta_mean_motion_ddot": 0,
        "tle_line1": "1 67025U 25293Y   25358.91670139 -.01658671  00000+0 -10989-1 0  9993",
        "tle_line2": "2 67025  69.9919 288.4768 0003655 263.1324 358.6798 15.78451625  2189"
      },
      "geometry": {
        "type": "Point",
        "coordinates": [
          131.95409520115453,
          -48.74230883013081
        ]
      }
    },
    {
      "type": "Feature",
      "properties": {
        "norad_id": 67026,
        "name": "STARLINK-36176",
        "group": "last-30-days",
        "lat": -52.79182191822574,
        "lon": 136.08484539211975,
        "alt_km": 343.3060981409226,
        "timestamp": "2025-12-25T07:00:32.766692+00:00",
        "meta_object_name": "STARLINK-36176",
        "meta_object_id": "2025-293Z",
        "meta_epoch": "2025-12-24T22:00:03.000096",
        "meta_mean_motion": 15.7841038,
        "meta_eccentricity": 0.00036096,
        "meta_inclination": 69.9917,
        "meta_ra_of_asc_node": 288.4708,
        "meta_arg_of_pericenter": 267.2176,
        "meta_mean_anomaly": 359.4774,
        "meta_ephemeris_type": 0,
        "meta_classification_type": "U",
        "meta_norad_cat_id": 67026,
        "meta_element_set_no": 999,
        "meta_rev_at_epoch": 218,
        "meta_bstar": -0.011004307,
        "meta_mean_motion_dot": -0.01657961,
        "meta_mean_motion_ddot": 0,
        "tle_line1": "1 67026U 25293Z   25358.91670139 -.01657961  00000+0 -11004-1 0  9994",
        "tle_line2": "2 67026  69.9917 288.4708 0003609 267.2176 359.4774 15.78410380  2187"
      },
      "geometry": {
        "type": "Point",
        "coordinates": [
          136.08484539211975,
          -52.79182191822574
        ]
      }
    },
    {
      "type": "Feature",
      "properties": {
        "norad_id": 67027,
        "name": "STARLINK-36171",
        "group": "last-30-days",
        "lat": -51.0035547179414,
        "lon": 134.15386186753028,
        "alt_km": 343.28578008320346,
        "timestamp": "2025-12-25T07:00:32.766702+00:00",
        "meta_object_name": "STARLINK-36171",
        "meta_object_id": "2025-293AA",
        "meta_epoch": "2025-12-24T22:00:03.000096",
        "meta_mean_motion": 15.78420524,
        "meta_eccentricity": 0.0003483,
        "meta_inclination": 69.9915,
        "meta_ra_of_asc_node": 288.4737,
        "meta_arg_of_pericenter": 263.9777,
        "meta_mean_anomaly": 0.5489,
        "meta_ephemeris_type": 0,
        "meta_classification_type": "U",
        "meta_norad_cat_id": 67027,
        "meta_element_set_no": 999,
        "meta_rev_at_epoch": 218,
        "meta_bstar": -0.011004958,
        "meta_mean_motion_dot": -0.01658573,
        "meta_mean_motion_ddot": 0,
        "tle_line1": "1 67027U 25293AA  25358.91670139 -.01658573  00000+0 -11005-1 0  9996",
        "tle_line2": "2 67027  69.9915 288.4737 0003483 263.9777   0.5489 15.78420524  2186"
      },
      "geometry": {
        "type": "Point",
        "coordinates": [
          134.15386186753028,
          -51.0035547179414
        ]
      }
    },
    {
      "type": "Feature",
      "properties": {
        "norad_id": 67028,
        "name": "STARLINK-36132",
        "group": "last-30-days",
        "lat": -56.69529953298844,
        "lon": 141.0839236494699,
        "alt_km": 343.3771010539267,
        "timestamp": "2025-12-25T07:00:32.766713+00:00",
        "meta_object_name": "STARLINK-36132",
        "meta_object_id": "2025-293AB",
        "meta_epoch": "2025-12-24T22:00:03.000096",
        "meta_mean_motion": 15.78373248,
        "meta_eccentricity": 0.0003681,
        "meta_inclination": 69.992,
        "meta_ra_of_asc_node": 288.4653,
        "meta_arg_of_pericenter": 267.2649,
        "meta_mean_anomaly": 4.3431,
        "meta_ephemeris_type": 0,
        "meta_classification_type": "U",
        "meta_norad_cat_id": 67028,
        "meta_element_set_no": 999,
        "meta_rev_at_epoch": 218,
        "meta_bstar": -0.011053444,
        "meta_mean_motion_dot": -0.01662017,
        "meta_mean_motion_ddot": 0,
        "tle_line1": "1 67028U 25293AB  25358.91670139 -.01662017  00000+0 -11053-1 0  9998",
        "tle_line2": "2 67028  69.9920 288.4653 0003681 267.2649   4.3431 15.78373248  2184"
      },
      "geometry": {
        "type": "Point",
        "coordinates": [
          141.0839236494699,
          -56.69529953298844
        ]
      }
    },
    {
      "type": "Feature",
      "properties": {
        "norad_id": 67029,
        "name": "STARLINK-36190",
        "group": "last-30-days",
        "lat": -54.62127406811955,
        "lon": 138.27549169539665,
        "alt_km": 343.37883367991253,
        "timestamp": "2025-12-25T07:00:32.766723+00:00",
        "meta_object_name": "STARLINK-36190",
        "meta_object_id": "2025-293AC",
        "meta_epoch": "2025-12-24T22:00:03.000096",
        "meta_mean_motion": 15.78406915,
        "meta_eccentricity": 0.00034869,
        "meta_inclination": 69.9922,
        "meta_ra_of_asc_node": 288.4688,
        "meta_arg_of_pericenter": 264.4703,
        "meta_mean_anomaly": 4.4807,
        "meta_ephemeris_type": 0,
        "meta_classification_type": "U",
        "meta_norad_cat_id": 67029,
        "meta_element_set_no": 999,
        "meta_rev_at_epoch": 218,
        "meta_bstar": -0.01110133,
        "meta_mean_motion_dot": -0.01670237,
        "meta_mean_motion_ddot": 0,
        "tle_line1": "1 67029U 25293AC  25358.91670139 -.01670237  00000+0 -11101-1 0  9996",
        "tle_line2": "2 67029  69.9922 288.4688 0003486 264.4703   4.4807 15.78406915  2184"
      },
      "geometry": {
        "type": "Point",
        "coordinates": [
          138.27549169539665,
          -54.62127406811955
        ]
      }
    },
    {
      "type": "Feature",
      "properties": {
        "norad_id": 67030,
        "name": "STARLINK-36138",
        "group": "last-30-days",
        "lat": 17.402868406112344,
        "lon": -94.20357605880348,
        "alt_km": 354.3029012189663,
        "timestamp": "2025-12-25T07:00:32.766736+00:00",
        "meta_object_name": "STARLINK-36138",
        "meta_object_id": "2025-294A",
        "meta_epoch": "2025-12-24T22:00:03.000096",
        "meta_mean_motion": 15.72549336,
        "meta_eccentricity": 0.00011819,
        "meta_inclination": 42.9995,
        "meta_ra_of_asc_node": 107.7188,
        "meta_arg_of_pericenter": 282.9933,
        "meta_mean_anomaly": 264.5443,
        "meta_ephemeris_type": 0,
        "meta_classification_type": "U",
        "meta_norad_cat_id": 67030,
        "meta_element_set_no": 999,
        "meta_rev_at_epoch": 206,
        "meta_bstar": -0.016205342,
        "meta_mean_motion_dot": -0.0197615,
        "meta_mean_motion_ddot": 0,
        "tle_line1": "1 67030U 25294A   25358.91670139 -.01976150  00000+0 -16205-1 0  9992",
        "tle_line2": "2 67030  42.9995 107.7188 0001181 282.9933 264.5443 15.72549336  2066"
      },
      "geometry": {
        "type": "Point",
        "coordinates": [
          -94.20357605880348,
          17.402868406112344
        ]
      }
    },
    {
      "type": "Feature",
      "properties": {
        "norad_id": 67031,
        "name": "STARLINK-36150",
        "group": "last-30-days",
        "lat": 16.230817157592227,
        "lon": -92.75712572685693,
        "alt_km": 354.49653244605815,
        "timestamp": "2025-12-25T07:00:32.766748+00:00",
        "meta_object_name": "STARLINK-36150",
        "meta_object_id": "2025-294B",
        "meta_epoch": "2025-12-24T22:00:03.000096",
        "meta_mean_motion": 15.72552012,
        "meta_eccentricity": 0.00013197,
        "meta_inclination": 42.9996,
        "meta_ra_of_asc_node": 107.7139,
        "meta_arg_of_pericenter": 282.8443,
        "meta_mean_anomaly": 266.5043,
        "meta_ephemeris_type": 0,
        "meta_classification_type": "U",
        "meta_norad_cat_id": 67031,
        "meta_element_set_no": 999,
        "meta_rev_at_epoch": 226,
        "meta_bstar": -0.016152008,
        "meta_mean_motion_dot": -0.01970714,
        "meta_mean_motion_ddot": 0,
        "tle_line1": "1 67031U 25294B   25358.91670139 -.01970714  00000+0 -16152-1 0  9994",
        "tle_line2": "2 67031  42.9996 107.7139 0001319 282.8443 266.5043 15.72552012  2267"
      },
      "geometry": {
        "type": "Point",
        "coordinates": [
          -92.75712572685693,
          16.230817157592227
        ]
      }
    }
  ]
}